{
  "norad_id": 60298,
  "name": "STARLINK-32124",
  "history": [
    {
      "epoch": "2026-03-28T20:50:41.135424Z",
      "apogee_km": 475.98560846848613,
      "perigee_km": 474.52076484999,
      "latitude_deg": -2.6565009901600086e-06,
      "longitude_deg": -175.38479936088464,
      "height_km": 476.05275664066977,
      "semi_major_axis_km": 6853.390186659238,
      "eccentricity": 0.00010687,
      "inclination_deg": 53.1599,
      "raan_deg": 323.5694,
      "arg_perigee_deg": 82.2492,
      "mean_anomaly_deg": 277.863,
      "mean_motion_rev_day": 15.30187234
    },
    {
      "epoch": "2026-03-29T01:32:50.444736Z",
      "apogee_km": 475.9754356563044,
      "perigee_km": 474.5060714659412,
      "latitude_deg": 1.2274320462008675e-05,
      "longitude_deg": 112.97279460361162,
      "height_km": 476.01814183659866,
      "semi_major_axis_km": 6853.3777535611225,
      "eccentricity": 0.0001072,
      "inclination_deg": 53.1597,
      "raan_deg": 322.6589,
      "arg_perigee_deg": 80.5251,
      "mean_anomaly_deg": 279.5871,
      "mean_motion_rev_day": 15.30191398
    }
  ]
}